start=new Date('2023-05-18T00:00:00.000Z').valueOf();
sats=[{"APOAPSIS":"540.706","ELEMENT_SET_NO":"999","MEAN_ELEMENT_THEORY":"SGP4","REF_FRAME":"TEME","NORAD_CAT_ID":"52562","EPOCH":"2023-05-17T01:24:45.061632","EPHEMERIS_TYPE":"0","TLE_LINE1":"1 52562U 22051AF  23137.05885488  .00000401  00000-0  43263-4 0  9999","BSTAR":"0.00004326300000","COUNTRY_CODE":"US","ARG_OF_PERICENTER":"93.5811","INCLINATION":"53.2177","ECCENTRICITY":"0.00014130","CENTER_NAME":"EARTH","MEAN_ANOMALY":"266.5342","REV_AT_EPOCH":"5644","OBJECT_TYPE":"PAYLOAD","OBJECT_NAME":"STARLINK-3957","TIME_SYSTEM":"UTC","PERIAPSIS":"538.751","TLE_LINE2":"2 52562  53.2177  52.3316 0001413  93.5811 266.5342 15.08845369 56449","SEMIMAJOR_AXIS":"6917.864","OBJECT_ID":"2022-051AF","CLASSIFICATION_TYPE":"U","SITE":"AFWTR","GP_ID":"232043833","MEAN_MOTION_DDOT":"0.0000000000000","PERIOD":"95.437","LAUNCH_DATE":"2022-05-13","DECAY_DATE":null,"RCS_SIZE":"LARGE","RA_OF_ASC_NODE":"52.3316","FILE":"3910633","MEAN_MOTION":"15.08845369","MEAN_MOTION_DOT":"0.00000401"},{"RCS_SIZE":"LARGE","DECAY_DATE":null,"RA_OF_ASC_NODE":"66.7684","FILE":"3910633","MEAN_MOTION":"15.08838989","MEAN_MOTION_DOT":"0.00004899","CLASSIFICATION_TYPE":"U","SITE":"AFWTR","GP_ID":"232045083","MEAN_MOTION_DDOT":"0.0000000000000","PERIOD":"95.438","LAUNCH_DATE":"2022-05-13","ARG_OF_PERICENTER":"83.8033","COUNTRY_CODE":"US","INCLINATION":"53.2167","ECCENTRICITY":"0.00011820","CENTER_NAME":"EARTH","MEAN_ANOMALY":"276.3094","REV_AT_EPOCH":"5625","OBJECT_TYPE":"PAYLOAD","OBJECT_NAME":"STARLINK-3942","PERIAPSIS":"538.931","TIME_SYSTEM":"UTC","TLE_LINE2":"2 52563  53.2167  66.7684 0001182  83.8033 276.3094 15.08838989 56259","SEMIMAJOR_AXIS":"6917.883","OBJECT_ID":"2022-051AG","APOAPSIS":"540.566","ELEMENT_SET_NO":"999","MEAN_ELEMENT_THEORY":"SGP4","NORAD_CAT_ID":"52563","REF_FRAME":"TEME","EPOCH":"2023-05-17T04:25:35.243616","EPHEMERIS_TYPE":"0","BSTAR":"0.00032565000000","TLE_LINE1":"1 52563U 22051AG  23137.18443569  .00004899  00000-0  32565-3 0  9991"},{"FILE":"3910633","RCS_SIZE":"LARGE","DECAY_DATE":null,"RA_OF_ASC_NODE":"66.8127","MEAN_MOTION_DOT":"-0.00000304","MEAN_MOTION":"15.08846675","MEAN_MOTION_DDOT":"0.0000000000000","GP_ID":"232044834","PERIOD":"95.437","SITE":"AFWTR","CLASSIFICATION_TYPE":"U","LAUNCH_DATE":"2022-05-13","CENTER_NAME":"EARTH","MEAN_ANOMALY":"259.7839","REV_AT_EPOCH":"5625","COUNTRY_CODE":"US","ARG_OF_PERICENTER":"100.3299","INCLINATION":"53.2184","ECCENTRICITY":"0.00012910","TLE_LINE2":"2 52564  53.2184  66.8127 0001291 100.3299 259.7839 15.08846675 56255","SEMIMAJOR_AXIS":"6917.860","OBJECT_ID":"2022-051AH","OBJECT_TYPE":"PAYLOAD","OBJECT_NAME":"STARLINK-3959","TIME_SYSTEM":"UTC","PERIAPSIS":"538.832","ELEMENT_SET_NO":"999","APOAPSIS":"540.618","REF_FRAME":"TEME","NORAD_CAT_ID":"52564","EPOCH":"2023-05-17T04:16:21.965664","EPHEMERIS_TYPE":"0","TLE_LINE1":"1 52564U 22051AH  23137.17803201 -.00000304  00000-0 -10196-5 0  9991","BSTAR":"-0.00000101960000","MEAN_ELEMENT_THEORY":"SGP4"},{"APOAPSIS":"540.528","ELEMENT_SET_NO":"999","MEAN_ELEMENT_THEORY":"SGP4","EPHEMERIS_TYPE":"0","EPOCH":"2023-05-17T01:30:03.324672","BSTAR":"-0.00001690200000","TLE_LINE1":"1 52565U 22051AJ  23137.06253848 -.00000557  00000-0 -16902-4 0  9996","NORAD_CAT_ID":"52565","REF_FRAME":"TEME","INCLINATION":"53.2178","ECCENTRICITY":"0.00011260","COUNTRY_CODE":"US","ARG_OF_PERICENTER":"95.8687","CENTER_NAME":"EARTH","MEAN_ANOMALY":"264.2434","REV_AT_EPOCH":"5644","OBJECT_NAME":"STARLINK-3911","PERIAPSIS":"538.970","TIME_SYSTEM":"UTC","OBJECT_TYPE":"PAYLOAD","SEMIMAJOR_AXIS":"6917.884","TLE_LINE2":"2 52565  53.2178  52.3169 0001126  95.8687 264.2434 15.08838955 56446","OBJECT_ID":"2022-051AJ","CLASSIFICATION_TYPE":"U","SITE":"AFWTR","PERIOD":"95.438","GP_ID":"232044082","MEAN_MOTION_DDOT":"0.0000000000000","LAUNCH_DATE":"2022-05-13","DECAY_DATE":null,"RCS_SIZE":"LARGE","RA_OF_ASC_NODE":"52.3169","FILE":"3910633","MEAN_MOTION":"15.08838955","MEAN_MOTION_DOT":"-0.00000557"},{"MEAN_MOTION_DDOT":"0.0000000000000","GP_ID":"232044332","PERIOD":"95.437","SITE":"AFWTR","CLASSIFICATION_TYPE":"U","LAUNCH_DATE":"2022-05-13","FILE":"3910633","DECAY_DATE":null,"RCS_SIZE":"LARGE","RA_OF_ASC_NODE":"66.6024","MEAN_MOTION_DOT":"-0.00000091","MEAN_MOTION":"15.08845498","ELEMENT_SET_NO":"999","APOAPSIS":"540.573","NORAD_CAT_ID":"52566","REF_FRAME":"TEME","EPOCH":"2023-05-17T05:18:34.353216","EPHEMERIS_TYPE":"0","TLE_LINE1":"1 52566U 22051AK  23137.22123094 -.00000091  00000-0  12360-4 0  9990","BSTAR":"0.00001236000000","MEAN_ELEMENT_THEORY":"SGP4","CENTER_NAME":"EARTH","REV_AT_EPOCH":"5626","MEAN_ANOMALY":"266.9816","ARG_OF_PERICENTER":"93.1316","COUNTRY_CODE":"US","INCLINATION":"53.2183","ECCENTRICITY":"0.00012210","SEMIMAJOR_AXIS":"6917.864","TLE_LINE2":"2 52566  53.2183  66.6024 0001221  93.1316 266.9816 15.08845498 56260","OBJECT_ID":"2022-051AK","OBJECT_TYPE":"PAYLOAD","OBJECT_NAME":"STARLINK-3938","PERIAPSIS":"538.884","TIME_SYSTEM":"UTC"},{"FILE":"3910633","RA_OF_ASC_NODE":"48.4924","RCS_SIZE":"LARGE","DECAY_DATE":null,"MEAN_MOTION_DOT":"-0.00000214","MEAN_MOTION":"15.08834490","PERIOD":"95.438","GP_ID":"232044584","MEAN_MOTION_DDOT":"0.0000000000000","SITE":"AFWTR","CLASSIFICATION_TYPE":"U","LAUNCH_DATE":"2022-05-13","REV_AT_EPOCH":"5657","MEAN_ANOMALY":"243.2153","CENTER_NAME":"EARTH","ECCENTRICITY":"0.00014740","INCLINATION":"53.2194","ARG_OF_PERICENTER":"116.8990","COUNTRY_CODE":"US","OBJECT_ID":"2022-051AL","TLE_LINE2":"2 52567  53.2194  48.4924 0001474 116.8990 243.2153 15.08834490 56577","SEMIMAJOR_AXIS":"6917.897","TIME_SYSTEM":"UTC","PERIAPSIS":"538.743","OBJECT_NAME":"STARLINK-3929","OBJECT_TYPE":"PAYLOAD","ELEMENT_SET_NO":"999","APOAPSIS":"540.782","BSTAR":"0.00000464610000","TLE_LINE1":"1 52567U 22051AL  23137.91630151 -.00000214  00000-0  46461-5 0  9991","EPHEMERIS_TYPE":"0","EPOCH":"2023-05-17T21:59:28.450464","NORAD_CAT_ID":"52567","REF_FRAME":"TEME","MEAN_ELEMENT_THEORY":"SGP4"},{"FILE":"3910633","RA_OF_ASC_NODE":"48.5328","DECAY_DATE":null,"RCS_SIZE":"LARGE","MEAN_MOTION_DOT":"-0.00004680","MEAN_MOTION":"15.08828841","MEAN_MOTION_DDOT":"0.0000000000000","GP_ID":"232045334","PERIOD":"95.438","CLASSIFICATION_TYPE":"U","SITE":"AFWTR","LAUNCH_DATE":"2022-05-13","REV_AT_EPOCH":"5657","MEAN_ANOMALY":"274.5797","CENTER_NAME":"EARTH","ARG_OF_PERICENTER":"85.5335","COUNTRY_CODE":"US","ECCENTRICITY":"0.00012190","INCLINATION":"53.2169","OBJECT_ID":"2022-051AM","TLE_LINE2":"2 52568  53.2169  48.5328 0001219  85.5335 274.5797 15.08828841 56575","SEMIMAJOR_AXIS":"6917.914","OBJECT_TYPE":"PAYLOAD","PERIAPSIS":"538.936","TIME_SYSTEM":"UTC","OBJECT_NAME":"STARLINK-3930","ELEMENT_SET_NO":"999","APOAPSIS":"540.623","NORAD_CAT_ID":"52568","REF_FRAME":"TEME","TLE_LINE1":"1 52568U 22051AM  23137.90525579 -.00004680  00000-0 -27626-3 0  9990","BSTAR":"-0.00027626000000","EPOCH":"2023-05-17T21:43:34.100256","EPHEMERIS_TYPE":"0","MEAN_ELEMENT_THEORY":"SGP4"},{"PERIAPSIS":"538.668","TIME_SYSTEM":"UTC","OBJECT_NAME":"STARLINK-3927","OBJECT_TYPE":"PAYLOAD","OBJECT_ID":"2022-051AN","TLE_LINE2":"2 52569  53.2193  48.5030 0001581 116.7434 243.3720 15.08834706 56579","SEMIMAJOR_AXIS":"6917.897","ECCENTRICITY":"0.00015810","INCLINATION":"53.2193","COUNTRY_CODE":"US","ARG_OF_PERICENTER":"116.7434","MEAN_ANOMALY":"243.3720","REV_AT_EPOCH":"5657","CENTER_NAME":"EARTH","MEAN_ELEMENT_THEORY":"SGP4","BSTAR":"0.00001028200000","TLE_LINE1":"1 52569U 22051AN  23137.91262001 -.00000124  00000-0  10282-4 0  9999","EPOCH":"2023-05-17T21:54:10.368864","EPHEMERIS_TYPE":"0","NORAD_CAT_ID":"52569","REF_FRAME":"TEME","APOAPSIS":"540.855","ELEMENT_SET_NO":"999","MEAN_MOTION":"15.08834706","MEAN_MOTION_DOT":"-0.00000124","RA_OF_ASC_NODE":"48.5030","RCS_SIZE":"LARGE","DECAY_DATE":null,"FILE":"3910633","LAUNCH_DATE":"2022-05-13","CLASSIFICATION_TYPE":"U","SITE":"AFWTR","PERIOD":"95.438","MEAN_MOTION_DDOT":"0.0000000000000","GP_ID":"232043584"},{"OBJECT_ID":"2022-051AP","TLE_LINE2":"2 52570  53.2189  48.5499 0001215  91.8132 268.3000 15.08834437 56576","SEMIMAJOR_AXIS":"6917.897","TIME_SYSTEM":"UTC","PERIAPSIS":"538.922","OBJECT_NAME":"STARLINK-3924","OBJECT_TYPE":"PAYLOAD","MEAN_ANOMALY":"268.3000","REV_AT_EPOCH":"5657","CENTER_NAME":"EARTH","ECCENTRICITY":"0.00012150","INCLINATION":"53.2189","ARG_OF_PERICENTER":"91.8132","COUNTRY_CODE":"US","BSTAR":"-0.00000014483000","TLE_LINE1":"1 52570U 22051AP  23137.90158130 -.00000290  00000-0 -14483-6 0  9991","EPHEMERIS_TYPE":"0","EPOCH":"2023-05-17T21:38:16.624320","NORAD_CAT_ID":"52570","REF_FRAME":"TEME","MEAN_ELEMENT_THEORY":"SGP4","ELEMENT_SET_NO":"999","APOAPSIS":"540.603","MEAN_MOTION_DOT":"-0.00000290","MEAN_MOTION":"15.08834437","FILE":"3910633","RA_OF_ASC_NODE":"48.5499","RCS_SIZE":"LARGE","DECAY_DATE":null,"LAUNCH_DATE":"2022-05-13","PERIOD":"95.438","GP_ID":"232043834","MEAN_MOTION_DDOT":"0.0000000000000","SITE":"AFWTR","CLASSIFICATION_TYPE":"U"},{"MEAN_ELEMENT_THEORY":"SGP4","EPOCH":"2023-05-17T21:48:52.609536","EPHEMERIS_TYPE":"0","TLE_LINE1":"1 52574U 22051AQ  23137.90894224  .00000194  00000-0  30253-4 0  9998","BSTAR":"0.00003025300000","NORAD_CAT_ID":"52574","REF_FRAME":"TEME","APOAPSIS":"540.575","ELEMENT_SET_NO":"999","OBJECT_NAME":"STARLINK-3901","PERIAPSIS":"538.978","TIME_SYSTEM":"UTC","OBJECT_TYPE":"PAYLOAD","SEMIMAJOR_AXIS":"6917.912","TLE_LINE2":"2 52574  53.2188  48.5220 0001154  82.1828 277.9295 15.08829797 56573","OBJECT_ID":"2022-051AQ","INCLINATION":"53.2188","ECCENTRICITY":"0.00011540","COUNTRY_CODE":"US","ARG_OF_PERICENTER":"82.1828","CENTER_NAME":"EARTH","REV_AT_EPOCH":"5657","MEAN_ANOMALY":"277.9295","LAUNCH_DATE":"2022-05-13","CLASSIFICATION_TYPE":"U","SITE":"AFWTR","PERIOD":"95.438","GP_ID":"232044083","MEAN_MOTION_DDOT":"0.0000000000000","MEAN_MOTION":"15.08829797","MEAN_MOTION_DOT":"0.00000194","DECAY_DATE":null,"RCS_SIZE":"LARGE","RA_OF_ASC_NODE":"48.5220","FILE":"3910633"}];
